{
  "type": "FeatureCollection",
  "features": [
    {
      "type": "Feature",
      "properties": {
        "norad_id": 57400,
        "name": "TIANMU-1 08",
        "group": "weather",
        "lat": 72.68484599222836,
        "lon": 21.989354970369604,
        "alt_km": 469.6364756858484,
        "timestamp": "2025-12-22T18:58:53.063470+00:00",
        "meta_object_name": "TIANMU-1 08",
        "meta_object_id": "2023-101B",
        "meta_epoch": "2025-12-22T06:05:09.826944",
        "meta_mean_motion": 15.28180613,
        "meta_eccentricity": 0.00071426,
        "meta_inclination": 97.2849,
        "meta_ra_of_asc_node": 45.69,
        "meta_arg_of_pericenter": 57.1183,
        "meta_mean_anomaly": 303.0744,
        "meta_ephemeris_type": 0,
        "meta_classification_type": "U",
        "meta_norad_cat_id": 57400,
        "meta_element_set_no": 999,
        "meta_rev_at_epoch": 13460,
        "meta_bstar": 0.00027315101,
        "meta_mean_motion_dot": 7.435e-05,
        "meta_mean_motion_ddot": 0,
        "tle_line1": "1 57400U 23101B   25356.25358596  .00007435  00000+0  27315-3 0  9996",
        "tle_line2": "2 57400  97.2849  45.6900 0007142  57.1183 303.0744 15.28180613134600"
      },
      "geometry": {
        "type": "Point",
        "coordinates": [
          21.989354970369604,
          72.68484599222836
        ]
      }
    },
    {
      "type": "Feature",
      "properties": {
        "norad_id": 57401,
        "name": "TIANMU-1 09",
        "group": "weather",
        "lat": 31.49255687701142,
        "lon": -129.78438153016185,
        "alt_km": 479.61115473190875,
        "timestamp": "2025-12-22T18:58:53.063486+00:00",
        "meta_object_name": "TIANMU-1 09",
        "meta_object_id": "2023-101C",
        "meta_epoch": "2025-12-22T07:20:08.414880",
        "meta_mean_motion": 15.28215261,
        "meta_eccentricity": 0.00064093,
        "meta_inclination": 97.2805,
        "meta_ra_of_asc_node": 45.2493,
        "meta_arg_of_pericenter": 57.6676,
        "meta_mean_anomaly": 302.5184,
        "meta_ephemeris_type": 0,
        "meta_classification_type": "U",
        "meta_norad_cat_id": 57401,
        "meta_element_set_no": 999,
        "meta_rev_at_epoch": 13461,
        "meta_bstar": 0.0002969943,
        "meta_mean_motion_dot": 8.099e-05,
        "meta_mean_motion_ddot": 0,
        "tle_line1": "1 57401U 23101C   25356.30565295  .00008099  00000+0  29699-3 0  9993",
        "tle_line2": "2 57401  97.2805  45.2493 0006409  57.6676 302.5184 15.28215261134614"
      },
      "geometry": {
        "type": "Point",
        "coordinates": [
          -129.78438153016185,
          31.49255687701142
        ]
      }
    },
    {
      "type": "Feature",
      "properties": {
        "norad_id": 57402,
        "name": "TIANMU-1 10",
        "group": "weather",
        "lat": -40.127834294847176,
        "lon": 52.777350135198056,
        "alt_km": 488.154414330229,
        "timestamp": "2025-12-22T18:58:53.063502+00:00",
        "meta_object_name": "TIANMU-1 10",
        "meta_object_id": "2023-101D",
        "meta_epoch": "2025-12-22T06:35:11.426784",
        "meta_mean_motion": 15.28206944,
        "meta_eccentricity": 0.00081275,
        "meta_inclination": 97.2885,
        "meta_ra_of_asc_node": 46.0788,
        "meta_arg_of_pericenter": 55.6859,
        "meta_mean_anomaly": 304.5149,
        "meta_ephemeris_type": 0,
        "meta_classification_type": "U",
        "meta_norad_cat_id": 57402,
        "meta_element_set_no": 999,
        "meta_rev_at_epoch": 13460,
        "meta_bstar": 0.00029969043,
        "meta_mean_motion_dot": 8.174e-05,
        "meta_mean_motion_ddot": 0,
        "tle_line1": "1 57402U 23101D   25356.27443781  .00008174  00000+0  29969-3 0  9999",
        "tle_line2": "2 57402  97.2885  46.0788 0008127  55.6859 304.5149 15.28206944134609"
      },
      "geometry": {
        "type": "Point",
        "coordinates": [
          52.777350135198056,
          -40.127834294847176
        ]
      }
    },
    {
      "type": "Feature",
      "properties": {
        "norad_id": 57490,
        "name": "FENGYUN 3F",
        "group": "weather",
        "lat": -81.23213779178703,
        "lon": 161.41021570598278,
        "alt_km": 833.5482205738399,
        "timestamp": "2025-12-22T18:58:53.063521+00:00",
        "meta_object_name": "FENGYUN 3F",
        "meta_object_id": "2023-111A",
        "meta_epoch": "2025-12-22T07:34:15.399264",
        "meta_mean_motion": 14.19896002,
        "meta_eccentricity": 7.834e-05,
        "meta_inclination": 98.7071,
        "meta_ra_of_asc_node": 64.4539,
        "meta_arg_of_pericenter": 114.8515,
        "meta_mean_anomaly": 245.2743,
        "meta_ephemeris_type": 0,
        "meta_classification_type": "U",
        "meta_norad_cat_id": 57490,
        "meta_element_set_no": 999,
        "meta_rev_at_epoch": 12376,
        "meta_bstar": 5.8881996e-05,
        "meta_mean_motion_dot": 8.1e-07,
        "meta_mean_motion_ddot": 0,
        "tle_line1": "1 57490U 23111A   25356.31545601  .00000081  00000+0  58882-4 0  9992",
        "tle_line2": "2 57490  98.7071  64.4539 0000783 114.8515 245.2743 14.19896002123769"
      },
      "geometry": {
        "type": "Point",
        "coordinates": [
          161.41021570598278,
          -81.23213779178703
        ]
      }
    },
    {
      "type": "Feature",
      "properties": {
        "norad_id": 58584,
        "name": "ARKTIKA-M 2",
        "group": "weather",
        "lat": -13.572122943789964,
        "lon": 166.78214255457357,
        "alt_km": 5758.792987003625,
        "timestamp": "2025-12-22T18:58:53.063549+00:00",
        "meta_object_name": "ARKTIKA-M 2",
        "meta_object_id": "2023-198A",
        "meta_epoch": "2025-12-20T07:20:06.590112",
        "meta_mean_motion": 2.00602824,
        "meta_eccentricity": 0.68654675,
        "meta_inclination": 63.225,
        "meta_ra_of_asc_node": 174.0676,
        "meta_arg_of_pericenter": 268.0739,
        "meta_mean_anomaly": 18.8406,
        "meta_ephemeris_type": 0,
        "meta_classification_type": "U",
        "meta_norad_cat_id": 58584,
        "meta_element_set_no": 999,
        "meta_rev_at_epoch": 1473,
        "meta_bstar": 0,
        "meta_mean_motion_dot": 2.01e-06,
        "meta_mean_motion_ddot": 0,
        "tle_line1": "1 58584U 23198A   25354.30563183  .00000201  00000+0  00000+0 0  9992",
        "tle_line2": "2 58584  63.2250 174.0676 6865467 268.0739  18.8406  2.00602824 14734"
      },
      "geometry": {
        "type": "Point",
        "coordinates": [
          166.78214255457357,
          -13.572122943789964
        ]
      }
    },
    {
      "type": "Feature",
      "properties": {
        "norad_id": 58645,
        "name": "TIANMU-1 11",
        "group": "weather",
        "lat": 12.665880734769,
        "lon": 14.573195202821116,
        "alt_km": 494.2880831547809,
        "timestamp": "2025-12-22T18:58:53.063585+00:00",
        "meta_object_name": "TIANMU-1 11",
        "meta_object_id": "2023-205A",
        "meta_epoch": "2025-12-22T06:19:29.613216",
        "meta_mean_motion": 15.24707659,
        "meta_eccentricity": 0.00075313,
        "meta_inclination": 97.3593,
        "meta_ra_of_asc_node": 15.7195,
        "meta_arg_of_pericenter": 269.6837,
        "meta_mean_anomaly": 90.3538,
        "meta_ephemeris_type": 0,
        "meta_classification_type": "U",
        "meta_norad_cat_id": 58645,
        "meta_element_set_no": 999,
        "meta_rev_at_epoch": 11054,
        "meta_bstar": 0.00026454231,
        "meta_mean_motion_dot": 6.478e-05,
        "meta_mean_motion_ddot": 0,
        "tle_line1": "1 58645U 23205A   25356.26353719  .00006478  00000+0  26454-3 0  9995",
        "tle_line2": "2 58645  97.3593  15.7195 0007531 269.6837  90.3538 15.24707659110546"
      },
      "geometry": {
        "type": "Point",
        "coordinates": [
          14.573195202821116,
          12.665880734769
        ]
      }
    },
    {
      "type": "Feature",
      "properties": {
        "norad_id": 58646,
        "name": "TIANMU-1 12",
        "group": "weather",
        "lat": -40.50171365250017,
        "lon": -170.29726267665086,
        "alt_km": 494.9630501138381,
        "timestamp": "2025-12-22T18:58:53.063607+00:00",
        "meta_object_name": "TIANMU-1 12",
        "meta_object_id": "2023-205B",
        "meta_epoch": "2025-12-22T05:24:49.667040",
        "meta_mean_motion": 15.24592722,
        "meta_eccentricity": 0.00058473,
        "meta_inclination": 97.3581,
        "meta_ra_of_asc_node": 15.4844,
        "meta_arg_of_pericenter": 248.1469,
        "meta_mean_anomaly": 111.9147,
        "meta_ephemeris_type": 0,
        "meta_classification_type": "U",
        "meta_norad_cat_id": 58646,
        "meta_element_set_no": 999,
        "meta_rev_at_epoch": 11052,
        "meta_bstar": 0.0002660825,
        "meta_mean_motion_dot": 6.492e-05,
        "meta_mean_motion_ddot": 0,
        "tle_line1": "1 58646U 23205B   25356.22557485  .00006492  00000+0  26608-3 0  9995",
        "tle_line2": "2 58646  97.3581  15.4844 0005847 248.1469 111.9147 15.24592722110520"
      },
      "geometry": {
        "type": "Point",
        "coordinates": [
          -170.29726267665086,
          -40.50171365250017
        ]
      }
    }
  ]
}